OBJECT_NAME,OBJECT_ID,EPOCH,MEAN_MOTION,ECCENTRICITY,INCLINATION,RA_OF_ASC_NODE,ARG_OF_PERICENTER,MEAN_ANOMALY,EPHEMERIS_TYPE,CLASSIFICATION_TYPE,NORAD_CAT_ID,ELEMENT_SET_NO,REV_AT_EPOCH,BSTAR,MEAN_MOTION_DOT,MEAN_MOTION_DDOT
OPS 6582 (TRANSIT 5B-5),1964-083D,2026-07-01T02:28:32.159136,13.57014164,.0039819,90.0755,203.1512,235.5488,184.9684,0,U,965,999,4550,.88276E-4,.72E-6,0
LES-1,1965-008C,2026-07-01T04:25:48.590688,9.88354836,.0015487,32.1478,11.5499,320.2293,39.7069,0,U,1002,999,21757,-.29258E-3,.6E-7,0
SOLRAD 7B,1965-016D,2026-07-01T02:15:05.726592,13.94977193,.0018437,70.0771,206.6981,104.6600,255.6551,0,U,1291,999,11864,.35702E-4,-.4E-7,0
SECOR 4 (EGRS 4),1965-027B,2026-06-30T23:25:34.971744,12.92668039,.0031672,90.2485,15.8878,161.3332,354.7125,0,U,1315,999,88870,-.11831E-3,-.25E-6,0
TIROS 10,1965-051A,2026-07-01T01:30:53.022816,14.41635795,.0055953,98.5055,301.3337,38.4294,322.0860,0,U,1430,999,19791,.56126E-4,.141E-5,0
ALOUETTE 2,1965-098A,2026-06-30T22:19:07.406112,12.28360080,.1330209,79.7996,264.9592,204.6474,148.5007,0,U,1804,999,68096,.2469E-3,.756E-5,0
OV3-3,1966-070A,2026-07-01T02:50:34.759104,13.45873863,.101046,81.3269,318.7168,121.5374,248.8479,0,U,2389,999,60084,.87163E-3,.19703E-3,0
SECOR 7 (EGRS 7),1966-077B,2026-06-30T17:09:45.916992,8.59615164,.00112336,90.3381,277.5992,45.9095,314.2679,0,U,2411,999,87854,.50743148E-2,.12E-6,0
ERS 15,1966-077C,2026-06-25T17:11:14.207424,8.59079403,.00071762,90.3368,277.3329,61.6001,298.5573,0,U,2412,999,39119,0,.2E-7,0
ISIS 1,1969-009A,2026-06-30T19:44:24.756000,11.30435208,.17067084,88.4439,142.9017,220.6748,125.3776,0,U,3669,999,36131,.2954355E-4,.45E-6,0
SECOR 13 (EGRS 13),1969-037B,2026-07-01T02:43:44.467104,13.42977563,.003897,99.6467,52.9950,216.2807,269.5265,0,U,3891,999,80362,.54385E-4,-.11E-6,0
ATS 5,1969-069A,2026-07-01T00:49:49.567872,0.99489419,.0005285,0.2727,145.1117,131.9488,117.2433,0,U,4068,999,4646,0,-.161E-5,0
OPS 7613 (P/L 4),1969-082E,2026-07-01T03:36:53.467776,13.95998744,.0018098,70.0151,74.0625,115.0104,359.9821,0,U,4237,999,88825,.84515E-4,.63E-6,0
OPS 7613 (P/L 1),1969-082B,2026-07-01T00:48:25.904160,13.99200940,.0017773,70.0106,295.2685,41.3945,318.8505,0,U,4256,999,89240,.9317E-4,.82E-6,0
SHINSEI (MS-F2),1971-080A,2026-06-30T23:05:18.838176,12.74253346,.0639649,32.0544,43.5227,130.1878,235.6508,0,U,5485,999,55101,.87057E-4,.63E-6,0
PROSPERO (BLACK ARROW),1971-093A,2026-07-01T00:08:07.791072,14.01652261,.0501154,82.0389,278.6990,187.3691,171.9923,0,U,5580,999,75046,.36368E-3,.1713E-4,0
OPS 7898 (P/L 2),1971-110C,2026-07-01T03:21:30.440160,13.74759974,.0007045,69.9908,334.1245,170.4465,189.6765,0,U,5680,999,35013,.36476E-4,-.15E-6,0
NOAA 2 (ITOS-D),1972-082A,2026-07-01T00:08:16.348128,12.53215440,.0004447,102.0071,200.7286,140.0311,248.3384,0,U,6235,999,45668,.14787E-3,-.23E-6,0
OSCAR 7 (AO-7),1974-089B,2026-07-01T00:28:14.518272,12.53698354,.0012652,101.9899,195.4104,104.5118,280.0409,0,U,7530,999,36225,.70315E-4,-.35E-6,0
TIROS N,1978-096A,2026-07-01T00:36:29.350080,14.19379145,.0010011,98.4526,202.4515,195.6710,164.4158,0,U,11060,999,68071,.85248E-4,.138E-5,0
PHASE 3B (AO-10),1983-058B,2026-06-29T23:51:36.200736,2.05871195,.60065195,25.9232,217.4494,119.1882,313.2024,0,U,14129,999,29575,0,-.15E-5,0
HILAT,1983-063A,2026-06-30T20:41:48.240096,14.38720114,.00378075,82.0243,148.3132,248.5843,131.1735,0,U,14154,999,24955,.11129735E-3,.36E-5,0
UOSAT 2 (UO-11),1984-021B,2026-06-30T20:19:10.219584,14.90818016,.00087032,97.8065,147.2693,131.0720,229.1252,0,U,14781,999,25916,.16310631E-3,.155E-4,0
NOAA 9,1984-123A,2026-07-01T02:45:05.975136,14.17071874,.0013836,99.0983,209.0751,313.4761,116.0152,0,U,15427,999,14539,.81254E-4,.117E-5,0
GEOSAT,1985-021A,2026-07-01T01:02:00.542112,14.39972814,.0001579,108.0414,110.2801,294.3443,65.7534,0,U,15595,999,16476,.88736E-4,.144E-5,0
EUTELSAT 1-F4 (ECS 4),1987-078B,2026-07-01T01:26:35.657952,0.98687801,.0010371,13.8184,342.0292,45.4212,145.4376,0,U,18351,999,12689,0,.17E-6,0
PACSAT (AO-16),1990-005D,2026-07-01T01:23:35.666880,14.33941096,.0010467,98.8515,218.0626,185.0104,229.4570,0,U,20439,999,90392,.69553E-4,.148E-5,0
LUSAT (LO-19),1990-005G,2026-06-30T23:54:27.732384,14.34127334,.0011903,98.8845,204.1820,160.5793,199.5847,0,U,20442,999,90437,.64715E-4,.135E-5,0
IRS-1B,1991-061A,2026-07-01T00:04:47.456256,13.97875358,.0023781,99.4106,190.2944,327.0787,87.2241,0,U,21688,999,67042,-.8049E-4,-.161E-5,0
COSMOS 2197,1992-042A,2026-07-01T03:44:49.447968,12.64252280,.0011578,82.5925,220.0086,239.0803,178.1756,0,U,22034,999,56705,.11325E-3,.31E-6,0
PEGASUS R/B,1993-009C,2026-06-30T14:33:31.968000,14.57986875,.00437736,24.9792,5.5687,251.7023,107.8722,0,U,22491,999,77159,.13649223E-3,.852E-5,0
