{"format":"tle-catalog-v1","generatedAt":"2026-07-01T14:19:31.438Z","count":19018,"entries":[{"name":"ALOUETTE 2","line1":"1 01804U 65098A   26181.92994683  .00000756  00000+0  24690-3 0  9990","line2":"2 01804  79.7996 264.9592 1330209 204.6474 148.5007 12.28360080680968"},{"name":"ATS 5","line1":"1 04068U 69069A   26182.03460148 -.00000161  00000+0  00000+0 0  9990","line2":"2 04068   0.2727 145.1117 0005285 131.9488 117.2433  0.99489419 46466"},{"name":"COSMOS 2197","line1":"1 22034U 92042A   26182.15612787  .00000031  00000+0  11325-3 0  9992","line2":"2 22034  82.5925 220.0086 0011578 239.0803 178.1756 12.64252280567059"},{"name":"ERS 15","line1":"1 02412U 66077C   26176.71613666  .00000002  00000+0  00000+0 0  9993","line2":"2 02412  90.3368 277.3329 0007176  61.6001 298.5573  8.59079403391195"},{"name":"EUTELSAT 1-F4 (ECS 4)","line1":"1 18351U 87078B   26182.06013493  .00000017  00000+0  00000+0 0  9999","line2":"2 18351  13.8184 342.0292 0010371  45.4212 145.4376  0.98687801126890"},{"name":"GEOSAT","line1":"1 15595U 85021A   26182.04306183  .00000144  00000+0  88736-4 0  9999","line2":"2 15595 108.0414 110.2801 0001579 294.3443  65.7534 14.39972814164761"},{"name":"HILAT","line1":"1 14154U 83063A   26181.86236389  .00000360  00000+0  11130-3 0  9995","line2":"2 14154  82.0243 148.3132 0037807 248.5843 131.1735 14.38720114249554"},{"name":"IRS-1B","line1":"1 21688U 91061A   26182.00332704 -.00000161  00000+0 -80490-4 0  9994","line2":"2 21688  99.4106 190.2944 0023781 327.0787  87.2241 13.97875358670429"},{"name":"ISIS 1","line1":"1 03669U 69009A   26181.82250875  .00000045  00000+0  29544-4 0  9999","line2":"2 03669  88.4439 142.9017 1706708 220.6748 125.3776 11.30435208361316"},{"name":"LES-1","line1":"1 01002U 65008C   26182.18459017  .00000006  00000+0 -29258-3 0  9991","line2":"2 01002  32.1478  11.5499 0015487 320.2293  39.7069  9.88354836217575"},{"name":"LUSAT (LO-19)","line1":"1 20442U 90005G   26181.99615431  .00000135  00000+0  64715-4 0  9997","line2":"2 20442  98.8845 204.1820 0011903 160.5793 199.5847 14.34127334904376"},{"name":"NOAA 2 (ITOS-D)","line1":"1 06235U 72082A   26182.00574477 -.00000023  00000+0  14787-3 0  9993","line2":"2 06235 102.0071 200.7286 0004447 140.0311 248.3384 12.53215440456681"},{"name":"NOAA 9","line1":"1 15427U 84123A   26182.11465249  .00000117  00000+0  81254-4 0  9990","line2":"2 15427  99.0983 209.0751 0013836 313.4761 116.0152 14.17071874145397"},{"name":"OPS 6582 (TRANSIT 5B-5)","line1":"1 00965U 64083D   26182.10314999  .00000072  00000+0  88276-4 0  9999","line2":"2 00965  90.0755 203.1512 0039819 235.5488 184.9684 13.57014164 45503"},{"name":"OPS 7613 (P/L 1)","line1":"1 04256U 69082B   26182.03363315  .00000082  00000+0  93170-4 0  9998","line2":"2 04256  70.0106 295.2685 0017773  41.3945 318.8505 13.99200940892401"},{"name":"OPS 7613 (P/L 4)","line1":"1 04237U 69082E   26182.15061884  .00000063  00000+0  84515-4 0  9998","line2":"2 04237  70.0151  74.0625 0018098 115.0104 359.9821 13.95998744888251"},{"name":"OPS 7898 (P/L 2)","line1":"1 05680U 71110C   26182.13993565 -.00000015  00000+0  36476-4 0  9995","line2":"2 05680  69.9908 334.1245 0007045 170.4465 189.6765 13.74759974350137"},{"name":"OSCAR 7 (AO-7)","line1":"1 07530U 74089B   26182.01961248 -.00000035  00000+0  70315-4 0  9991","line2":"2 07530 101.9899 195.4104 0012652 104.5118 280.0409 12.53698354362251"},{"name":"OV3-3","line1":"1 02389U 66070A   26182.11845786  .00019703  00000+0  87163-3 0  9997","line2":"2 02389  81.3269 318.7168 1010460 121.5374 248.8479 13.45873863600840"},{"name":"PACSAT (AO-16)","line1":"1 20439U 90005D   26182.05805170  .00000148  00000+0  69553-4 0  9991","line2":"2 20439  98.8515 218.0626 0010467 185.0104 229.4570 14.33941096903920"},{"name":"PEGASUS R/B","line1":"1 22491U 93009C   26181.60662000  .00000852  00000+0  13649-3 0  9997","line2":"2 22491  24.9792   5.5687 0043773 251.7023 107.8722 14.57986875771594"},{"name":"PHASE 3B (AO-10)","line1":"1 14129U 83058B   26180.99416899 -.00000150  00000+0  00000+0 0  9998","line2":"2 14129  25.9232 217.4494 6006519 119.1882 313.2024  2.05871195295751"},{"name":"PROSPERO (BLACK ARROW)","line1":"1 05580U 71093A   26182.00564573  .00001713  00000+0  36368-3 0  9997","line2":"2 05580  82.0389 278.6990 0501154 187.3691 171.9923 14.01652261750464"},{"name":"SECOR 13 (EGRS 13)","line1":"1 03891U 69037B   26182.11370911 -.00000011  00000+0  54385-4 0  9999","line2":"2 03891  99.6467  52.9950 0038970 216.2807 269.5265 13.42977563803628"},{"name":"SECOR 4 (EGRS 4)","line1":"1 01315U 65027B   26181.97609921 -.00000025  00000+0 -11831-3 0  9996","line2":"2 01315  90.2485  15.8878 0031672 161.3332 354.7125 12.92668039888709"},{"name":"SECOR 7 (EGRS 7)","line1":"1 02411U 66077B   26181.71511478  .00000012  00000+0  50743-2 0  9999","line2":"2 02411  90.3381 277.5992 0011233  45.9095 314.2679  8.59615164878546"},{"name":"SHINSEI (MS-F2)","line1":"1 05485U 71080A   26181.96202359  .00000063  00000+0  87057-4 0  9991","line2":"2 05485  32.0544  43.5227 0639649 130.1878 235.6508 12.74253346551018"},{"name":"SOLRAD 7B","line1":"1 01291U 65016D   26182.09381628 -.00000004  00000+0  35702-4 0  9992","line2":"2 01291  70.0771 206.6981 0018437 104.6600 255.6551 13.94977193118641"},{"name":"TIROS 10","line1":"1 01430U 65051A   26182.06311369  .00000141  00000+0  56126-4 0  9992","line2":"2 01430  98.5055 301.3337 0055953  38.4294 322.0860 14.41635795197912"},{"name":"TIROS N","line1":"1 11060U 78096A   26182.02533970  .00000138  00000+0  85248-4 0  9998","line2":"2 11060  98.4526 202.4515 0010011 195.6710 164.4158 14.19379145680710"},{"name":"UOSAT 2 (UO-11)","line1":"1 14781U 84021B   26181.84664606  .00001550  00000+0  16311-3 0  9999","line2":"2 14781  97.8065 147.2693 0008703 131.0720 229.1252 14.90818016259166"}]}